NORAD_CAT_ID,OBJECT_NAME,OBJECT_TYPE,EPOCH,MEAN_MOTION,ECCENTRICITY,INCLINATION,RA_OF_ASC_NODE,ARG_OF_PERICENTER,MEAN_ANOMALY,BSTAR,MEAN_MOTION_DOT,MEAN_MOTION_DDOT,TLE_LINE0,TLE_LINE1,TLE_LINE2,SEMIMAJOR_AXIS,PERIOD,APOGEE,PERIGEE,DECAYED
49746.0,STARLINK-3233,PAYLOAD,2023-12-01 06:05:24,15.0883928,0.0001892,53.2181,272.5992,108.0174,252.1024,0.00056232,8.672e-05,0.0,0 STARLINK-3233,1 49746U 21115Y   23335.25375494  .00008672  00000-0  56232-3 0  9999,2 49746  53.2181 272.5992 0001892 108.0174 252.1024 15.08839280110315,6917.883,95.438,541.056,538.439,0.0
49746.0,STARLINK-3233,PAYLOAD,2023-12-02 01:10:01,15.08865425,0.0001902,53.2175,269.0321,101.2933,258.8273,0.00093737,0.00014672,0.0,0 STARLINK-3233,1 49746U 21115Y   23336.04862536  .00014672  00000-0  93737-3 0  9993,2 49746  53.2175 269.0321 0001902 101.2933 258.8273 15.08865425111540,6917.803,95.436,540.983,538.352,0.0
49746.0,STARLINK-3233,PAYLOAD,2023-12-02 02:45:24,15.08899546,0.0001855,53.2179,268.732,98.351,261.7692,0.0025827,0.00041123,0.0,0 STARLINK-3233,1 49746U 21115Y   23336.11486377  .00041123  00000-0  25827-2 0  9991,2 49746  53.2179 268.7320 0001855  98.3510 261.7692 15.08899546111553,6917.698,95.434,540.847,538.28,0.0
49746.0,STARLINK-3233,PAYLOAD,2023-12-03 01:00:48,15.0883168,0.0001741,53.2172,264.5718,117.0523,243.0647,-0.00014667,-2.621e-05,0.0,0 STARLINK-3233,1 49746U 21115Y   23337.04223158 -.00002621  00000-0 -14667-3 0  9993,2 49746  53.2172 264.5718 0001741 117.0523 243.0647 15.08831680111691,6917.906,95.438,540.975,538.566,0.0
49746.0,STARLINK-3233,PAYLOAD,2023-12-04 02:26:58,15.08862841,0.0001585,53.2162,259.8201,114.8753,245.2404,0.0011222,0.00017628,0.0,0 STARLINK-3233,1 49746U 21115Y   23338.10207021  .00017628  00000-0  11222-2 0  9996,2 49746  53.2162 259.8201 0001585 114.8753 245.2404 15.08862841111856,6917.811,95.436,540.772,538.579,0.0
49746.0,STARLINK-3233,PAYLOAD,2023-12-05 03:53:09,15.08847756,0.0001583,53.216,255.0626,115.6772,244.4384,0.00042507,6.485e-05,0.0,0 STARLINK-3233,1 49746U 21115Y   23339.16191084  .00006485  00000-0  42507-3 0  9994,2 49746  53.2160 255.0626 0001583 115.6772 244.4384 15.08847756112016,6917.857,95.437,540.817,538.627,0.0
49746.0,STARLINK-3233,PAYLOAD,2023-12-05 18:11:37,15.08833501,0.0002012,53.2174,252.3837,93.9751,266.1471,0.00043109,6.578e-05,0.0,0 STARLINK-3233,1 49746U 21115Y   23339.75807736  .00006578  00000-0  43109-3 0  9999,2 49746  53.2174 252.3837 0002012  93.9751 266.1471 15.08833501112109,6917.9,95.438,541.157,538.373,0.0
49746.0,STARLINK-3233,PAYLOAD,2023-12-06 03:43:56,15.08842899,0.0001921,53.2177,250.5988,101.317,258.8038,0.0005247,8.073e-05,0.0,0 STARLINK-3233,1 49746U 21115Y   23340.15551675  .00008073  00000-0  52470-3 0  9996,2 49746  53.2177 250.5988 0001921 101.3170 258.8038 15.08842899111056,6917.872,95.437,541.065,538.408,0.0
49746.0,STARLINK-3233,PAYLOAD,2023-12-07 03:34:44,15.08836042,0.0001943,53.2169,246.135,120.5822,239.5362,0.00011008,1.464e-05,0.0,0 STARLINK-3233,1 49746U 21115Y   23341.14912196  .00001464  00000-0  11008-3 0  9994,2 49746  53.2169 246.1350 0001943 120.5822 239.5362 15.08836042112311,6917.892,95.438,541.102,538.413,0.0
49746.0,STARLINK-3233,PAYLOAD,2023-12-08 17:43:59,15.08843303,0.000193,53.2172,238.9989,124.1376,235.9799,0.0001372,1.896e-05,0.0,0 STARLINK-3233,1 49746U 21115Y   23342.73888013  .00001896  00000-0  13720-3 0  9992,2 49746  53.2172 238.9989 0001930 124.1376 235.9799 15.08843303112550,6917.87,95.437,541.07,538.4,0.0
49746.0,STARLINK-3233,PAYLOAD,2023-12-09 17:34:46,15.08839659,0.0001875,53.2175,234.5395,113.4009,246.718,3.6522e-05,2.93e-06,0.0,0 STARLINK-3233,1 49746U 21115Y   23343.73248196  .00000293  00000-0  36522-4 0  9991,2 49746  53.2175 234.5395 0001875 113.4009 246.7180 15.08839659112708,6917.881,95.438,541.044,538.449,0.0
49746.0,STARLINK-3233,PAYLOAD,2023-12-10 22:11:43,15.08837635,0.0001291,53.2149,229.1849,98.0244,262.0894,6.0515e-05,6.75e-06,0.0,0 STARLINK-3233,1 49746U 21115Y   23344.92480521  .00000675  00000-0  60515-4 0  9996,2 49746  53.2149 229.1849 0001291  98.0244 262.0894 15.08837635111775,6917.888,95.438,540.646,538.86,0.0
49746.0,STARLINK-3233,PAYLOAD,2023-12-10 23:47:06,15.08838124,0.0001249,53.2152,228.8944,86.103,274.0104,6.3998e-05,7.31e-06,0.0,0 STARLINK-3233,1 49746U 21115Y   23344.99104589  .00000731  00000-0  63998-4 0  9991,2 49746  53.2152 228.8944 0001249  86.1030 274.0104 15.08838124112890,6917.886,95.438,540.615,538.887,0.0
49746.0,STARLINK-3233,PAYLOAD,2023-12-11 22:02:30,15.08841359,0.0001337,53.2154,224.7345,84.4709,275.6436,9.9501e-05,1.296e-05,0.0,0 STARLINK-3233,1 49746U 21115Y   23345.91840391  .00001296  00000-0  99501-4 0  9998,2 49746  53.2154 224.7345 0001337  84.4709 275.6436 15.08841359111926,6917.876,95.437,540.666,538.816,0.0
49746.0,STARLINK-3233,PAYLOAD,2023-12-11 23:37:53,15.08842508,0.0001378,53.2157,224.4373,85.7304,274.3845,0.00010776,1.428e-05,0.0,0 STARLINK-3233,1 49746U 21115Y   23345.98464303  .00001428  00000-0  10776-3 0  9993,2 49746  53.2157 224.4373 0001378  85.7304 274.3845 15.08842508111935,6917.873,95.437,540.691,538.784,0.0
49746.0,STARLINK-3233,PAYLOAD,2023-12-12 20:17:54,15.08840482,0.0001525,53.2161,220.5702,75.982,284.1341,7.3625e-05,8.84e-06,0.0,0 STARLINK-3233,1 49746U 21115Y   23346.84576639  .00000884  00000-0  73625-4 0  9993,2 49746  53.2161 220.5702 0001525  75.9820 284.1341 15.08840482113178,6917.879,95.438,540.799,538.689,0.0
49746.0,STARLINK-3233,PAYLOAD,2023-12-12 21:53:17,15.08841166,0.0001518,53.2161,220.273,76.4461,283.67,7.833e-05,9.59e-06,0.0,0 STARLINK-3233,1 49746U 21115Y   23346.91200606  .00000959  00000-0  78330-4 0  9990,2 49746  53.2161 220.2730 0001518  76.4461 283.6700 15.08841166112076,6917.877,95.437,540.792,538.692,0.0
49746.0,STARLINK-3233,PAYLOAD,2023-12-12 23:28:40,15.08841816,0.0001514,53.2161,219.9775,78.4955,281.6207,8.3354e-05,1.039e-05,0.0,0 STARLINK-3233,1 49746U 21115Y   23346.97824560  .00001039  00000-0  83354-4 0  9999,2 49746  53.2161 219.9775 0001514  78.4955 281.6207 15.08841816112089,6917.875,95.437,540.787,538.692,0.0
49746.0,STARLINK-3233,PAYLOAD,2023-12-13 21:44:03,15.08847079,0.000163,53.2163,215.8128,74.3933,285.7239,7.7817e-05,9.51e-06,0.0,0 STARLINK-3233,1 49746U 21115Y   23347.90560023  .00000951  00000-0  77817-4 0  9993,2 49746  53.2163 215.8128 0001630  74.3933 285.7239 15.08847079112221,6917.859,95.437,540.851,538.596,0.0
49746.0,STARLINK-3233,PAYLOAD,2023-12-14 19:59:28,15.08841198,0.000154,53.2158,211.6474,79.8291,280.2875,4.056e-05,3.58e-06,0.0,0 STARLINK-3233,1 49746U 21115Y   23348.83296298  .00000358  00000-0  40560-4 0  9992,2 49746  53.2158 211.6474 0001540  79.8291 280.2875 15.08841198113470,6917.877,95.437,540.807,538.676,0.0
49746.0,STARLINK-3233,PAYLOAD,2023-12-15 19:50:15,15.08832683,0.0001728,53.2171,207.175,113.5032,246.6142,-3.4774e-05,-8.41e-06,0.0,0 STARLINK-3233,1 49746U 21115Y   23349.82656900 -.00000841  00000-0 -34774-4 0  9991,2 49746  53.2171 207.1750 0001728 113.5032 246.6142 15.08832683113628,6917.903,95.438,540.963,538.572,0.0
49746.0,STARLINK-3233,PAYLOAD,2023-12-16 21:16:25,15.08836473,0.0001416,53.2175,202.4224,90.3224,269.7931,0.00010435,1.373e-05,0.0,0 STARLINK-3233,1 49746U 21115Y   23350.88640716  .00001373  00000-0  10435-3 0  9993,2 49746  53.2175 202.4224 0001416  90.3224 269.7931 15.08836473112672,6917.891,95.438,540.736,538.777,0.0
49746.0,STARLINK-3233,PAYLOAD,2023-12-17 19:31:49,15.08838309,0.0001402,53.2167,198.2598,96.5242,263.591,0.00010046,1.311e-05,0.0,0 STARLINK-3233,1 49746U 21115Y   23351.81376952  .00001311  00000-0  10046-3 0  9995,2 49746  53.2167 198.2598 0001402  96.5242 263.5910 15.08838309112817,6917.886,95.438,540.72,538.781,0.0
49746.0,STARLINK-3233,PAYLOAD,2023-12-18 19:22:36,15.08839579,0.000141,53.2164,193.7997,91.9691,268.1462,5.0495e-05,5.16e-06,0.0,0 STARLINK-3233,1 49746U 21115Y   23352.80737207  .00000516  00000-0  50495-4 0  9998,2 49746  53.2164 193.7997 0001410  91.9691 268.1462 15.08839579114076,6917.882,95.438,540.722,538.771,0.0
49746.0,STARLINK-3233,PAYLOAD,2023-12-18 20:58:00,15.08841103,0.0001394,53.2163,193.5023,84.7989,275.3162,5.7966e-05,6.35e-06,0.0,0 STARLINK-3233,1 49746U 21115Y   23352.87361132  .00000635  00000-0  57966-4 0  9997,2 49746  53.2163 193.5023 0001394  84.7989 275.3162 15.08841103112974,6917.877,95.437,540.706,538.778,0.0
49746.0,STARLINK-3233,PAYLOAD,2023-12-19 20:48:47,15.088373,0.000138,53.2159,189.045,79.5908,280.524,5.5725e-05,5.99e-06,0.0,0 STARLINK-3233,1 49746U 21115Y   23353.86721548  .00000599  00000-0  55725-4 0  9998,2 49746  53.2159 189.0450 0001380  79.5908 280.5240 15.08837300114231,6917.889,95.438,540.708,538.799,0.0
49746.0,STARLINK-3233,PAYLOAD,2023-12-20 19:04:10,15.08845365,0.0001395,53.2159,184.8834,78.9874,281.1275,0.00010421,1.371e-05,0.0,0 STARLINK-3233,1 49746U 21115Y   23354.79456933  .00001371  00000-0  10421-3 0  9996,2 49746  53.2159 184.8834 0001395  78.9874 281.1275 15.08845365114371,6917.864,95.437,540.694,538.764,0.0
49746.0,STARLINK-3233,PAYLOAD,2023-12-20 20:39:33,15.08847165,0.0001417,53.2161,184.5876,79.2866,280.8285,0.00012076,1.635e-05,0.0,0 STARLINK-3233,1 49746U 21115Y   23354.86080811  .00001635  00000-0  12076-3 0  9993,2 49746  53.2161 184.5876 0001417  79.2866 280.8285 15.08847165113272,6917.858,95.437,540.704,538.743,0.0
49746.0,STARLINK-3233,PAYLOAD,2023-12-22 18:45:44,15.0884377,0.0001336,53.2166,175.9608,98.1691,261.9453,7.6618e-06,-1.66e-06,0.0,0 STARLINK-3233,1 49746U 21115Y   23356.78176705 -.00000166  00000-0  76618-5 0  9997,2 49746  53.2166 175.9608 0001336  98.1691 261.9453 15.08843770114670,6917.869,95.437,540.658,538.81,0.0
49746.0,STARLINK-3233,PAYLOAD,2023-12-23 12:15:03,15.08804303,0.0001522,53.2166,172.6855,105.7802,254.3358,-0.00040451,-6.714e-05,0.0,0 STARLINK-3233,1 49746U 21115Y   23357.51045590 -.00006714  00000-0 -40451-3 0  9996,2 49746  53.2166 172.6855 0001522 105.7802 254.3358 15.08804303114785,6917.99,95.44,540.907,538.802,0.0
